start=new Date('2022-07-29T00:00:00.000Z').valueOf();
sats=[{"DECAY_DATE":null,"TIME_SYSTEM":"UTC","COUNTRY_CODE":"US","ECCENTRICITY":"0.00021020","INCLINATION":"53.2172","TLE_LINE2":"2 51772  53.2172 143.4303 0002102  54.3633 121.2238 15.08846597 24885","REF_FRAME":"TEME","CLASSIFICATION_TYPE":"U","FILE":"3524108","SEMIMAJOR_AXIS":"6917.860","LAUNCH_DATE":"2022-02-25","OBJECT_TYPE":"PAYLOAD","MEAN_MOTION_DOT":"-0.00023354","RCS_SIZE":"LARGE","TLE_LINE1":"1 51772U 22017E   22210.00001157 -.00023354  00000-0 -14537-2 0  9996","MEAN_ELEMENT_THEORY":"SGP4","CENTER_NAME":"EARTH","ARG_OF_PERICENTER":"54.3633","MEAN_ANOMALY":"121.2238","BSTAR":"-0.00145370000000","OBJECT_ID":"2022-017E","OBJECT_NAME":"STARLINK-3623","APOAPSIS":"541.179","MEAN_MOTION_DDOT":"0.0000000000000","REV_AT_EPOCH":"2488","EPOCH":"2022-07-29T00:00:00.999648","SITE":"AFWTR","ELEMENT_SET_NO":"999","NORAD_CAT_ID":"51772","GP_ID":"209044071","EPHEMERIS_TYPE":"0","PERIOD":"95.437","RA_OF_ASC_NODE":"143.4303","MEAN_MOTION":"15.08846597","PERIAPSIS":"538.271"},{"OBJECT_ID":"2022-017F","OBJECT_NAME":"STARLINK-3624","APOAPSIS":"541.068","BSTAR":"-0.00237400000000","SITE":"AFWTR","EPOCH":"2022-07-29T00:00:00.999648","REV_AT_EPOCH":"2483","MEAN_MOTION_DDOT":"0.0000000000000","GP_ID":"209044066","NORAD_CAT_ID":"51773","ELEMENT_SET_NO":"999","PERIAPSIS":"538.408","MEAN_MOTION":"15.08842438","RA_OF_ASC_NODE":"143.4286","EPHEMERIS_TYPE":"0","PERIOD":"95.437","INCLINATION":"53.2168","DECAY_DATE":null,"TIME_SYSTEM":"UTC","COUNTRY_CODE":"US","ECCENTRICITY":"0.00019220","MEAN_MOTION_DOT":"-0.00037875","SEMIMAJOR_AXIS":"6917.873","LAUNCH_DATE":"2022-02-25","OBJECT_TYPE":"PAYLOAD","CLASSIFICATION_TYPE":"U","FILE":"3524108","TLE_LINE2":"2 51773  53.2168 143.4286 0001922  57.9407  77.6472 15.08842438 24837","REF_FRAME":"TEME","MEAN_ELEMENT_THEORY":"SGP4","TLE_LINE1":"1 51773U 22017F   22210.00001157 -.00037875  00000-0 -23740-2 0  9996","RCS_SIZE":"LARGE","ARG_OF_PERICENTER":"57.9407","MEAN_ANOMALY":"77.6472","CENTER_NAME":"EARTH"},{"DECAY_DATE":null,"TIME_SYSTEM":"UTC","COUNTRY_CODE":"US","ECCENTRICITY":"0.00018230","INCLINATION":"53.2162","SEMIMAJOR_AXIS":"6917.856","OBJECT_TYPE":"PAYLOAD","LAUNCH_DATE":"2022-02-25","MEAN_MOTION_DOT":"-0.00021423","TLE_LINE2":"2 51774  53.2162 143.4298 0001823  55.5880 159.9874 15.08847914 24849","REF_FRAME":"TEME","CLASSIFICATION_TYPE":"U","FILE":"3524108","RCS_SIZE":"LARGE","TLE_LINE1":"1 51774U 22017G   22210.00001157 -.00021423  00000-0 -13316-2 0  9997","MEAN_ELEMENT_THEORY":"SGP4","CENTER_NAME":"EARTH","ARG_OF_PERICENTER":"55.5880","MEAN_ANOMALY":"159.9874","OBJECT_ID":"2022-017G","OBJECT_NAME":"STARLINK-3629","APOAPSIS":"540.982","BSTAR":"-0.00133160000000","EPOCH":"2022-07-29T00:00:00.999648","SITE":"AFWTR","MEAN_MOTION_DDOT":"0.0000000000000","REV_AT_EPOCH":"2484","NORAD_CAT_ID":"51774","GP_ID":"209044410","ELEMENT_SET_NO":"999","RA_OF_ASC_NODE":"143.4298","PERIAPSIS":"538.460","MEAN_MOTION":"15.08847914","EPHEMERIS_TYPE":"0","PERIOD":"95.437"},{"REV_AT_EPOCH":"2482","MEAN_MOTION_DDOT":"0.0000000000000","SITE":"AFWTR","EPOCH":"2022-07-29T00:00:00.999648","BSTAR":"-0.00146110000000","APOAPSIS":"541.043","OBJECT_NAME":"STARLINK-3620","OBJECT_ID":"2022-017H","PERIOD":"95.436","EPHEMERIS_TYPE":"0","MEAN_MOTION":"15.08859953","PERIAPSIS":"538.326","RA_OF_ASC_NODE":"143.4298","ELEMENT_SET_NO":"999","NORAD_CAT_ID":"51775","GP_ID":"209044415","FILE":"3524108","CLASSIFICATION_TYPE":"U","REF_FRAME":"TEME","TLE_LINE2":"2 51775  53.2176 143.4298 0001964  54.7423 100.8139 15.08859953 24828","MEAN_MOTION_DOT":"-0.00023479","OBJECT_TYPE":"PAYLOAD","LAUNCH_DATE":"2022-02-25","SEMIMAJOR_AXIS":"6917.819","INCLINATION":"53.2176","COUNTRY_CODE":"US","ECCENTRICITY":"0.00019640","TIME_SYSTEM":"UTC","DECAY_DATE":null,"MEAN_ANOMALY":"100.8139","ARG_OF_PERICENTER":"54.7423","CENTER_NAME":"EARTH","MEAN_ELEMENT_THEORY":"SGP4","TLE_LINE1":"1 51775U 22017H   22210.00001157 -.00023479  00000-0 -14611-2 0  9990","RCS_SIZE":"LARGE"},{"INCLINATION":"53.2170","ECCENTRICITY":"0.00021440","COUNTRY_CODE":"US","TIME_SYSTEM":"UTC","DECAY_DATE":null,"MEAN_MOTION_DOT":"-0.00020803","LAUNCH_DATE":"2022-02-25","OBJECT_TYPE":"PAYLOAD","SEMIMAJOR_AXIS":"6917.828","FILE":"3524104","CLASSIFICATION_TYPE":"U","REF_FRAME":"TEME","TLE_LINE2":"2 51776  53.2170 143.4309 0002144  62.6523 172.8963 15.08857172 24832","TLE_LINE1":"1 51776U 22017J   22210.00001157 -.00020803  00000-0 -12921-2 0  9991","MEAN_ELEMENT_THEORY":"SGP4","RCS_SIZE":"LARGE","MEAN_ANOMALY":"172.8963","ARG_OF_PERICENTER":"62.6523","CENTER_NAME":"EARTH","APOAPSIS":"541.176","OBJECT_ID":"2022-017J","OBJECT_NAME":"STARLINK-3608","BSTAR":"-0.00129210000000","SITE":"AFWTR","EPOCH":"2022-07-29T00:00:00.999648","REV_AT_EPOCH":"2483","MEAN_MOTION_DDOT":"0.0000000000000","NORAD_CAT_ID":"51776","GP_ID":"209044075","ELEMENT_SET_NO":"999","PERIAPSIS":"538.210","MEAN_MOTION":"15.08857172","RA_OF_ASC_NODE":"143.4309","PERIOD":"95.436","EPHEMERIS_TYPE":"0"},{"GP_ID":"209044422","NORAD_CAT_ID":"51777","ELEMENT_SET_NO":"999","MEAN_MOTION":"15.08858817","PERIAPSIS":"538.263","RA_OF_ASC_NODE":"143.4306","PERIOD":"95.436","EPHEMERIS_TYPE":"0","APOAPSIS":"541.112","OBJECT_ID":"2022-017K","OBJECT_NAME":"STARLINK-3625","BSTAR":"-0.00139000000000","SITE":"AFWTR","EPOCH":"2022-07-29T00:00:00.999648","REV_AT_EPOCH":"2484","MEAN_MOTION_DDOT":"0.0000000000000","MEAN_ELEMENT_THEORY":"SGP4","TLE_LINE1":"1 51777U 22017K   22210.00001157 -.00022354  00000-0 -13900-2 0  9993","RCS_SIZE":"LARGE","MEAN_ANOMALY":"139.4837","ARG_OF_PERICENTER":"56.0631","CENTER_NAME":"EARTH","INCLINATION":"53.2176","COUNTRY_CODE":"US","ECCENTRICITY":"0.00020590","TIME_SYSTEM":"UTC","DECAY_DATE":null,"MEAN_MOTION_DOT":"-0.00022354","OBJECT_TYPE":"PAYLOAD","LAUNCH_DATE":"2022-02-25","SEMIMAJOR_AXIS":"6917.823","CLASSIFICATION_TYPE":"U","FILE":"3524104","REF_FRAME":"TEME","TLE_LINE2":"2 51777  53.2176 143.4306 0002059  56.0631 139.4837 15.08858817 24845"},{"MEAN_MOTION_DDOT":"0.0000000000000","REV_AT_EPOCH":"2497","EPOCH":"2022-07-29T00:00:00.999648","SITE":"AFWTR","BSTAR":"-0.00149160000000","OBJECT_ID":"2022-017L","OBJECT_NAME":"STARLINK-3615","APOAPSIS":"541.025","EPHEMERIS_TYPE":"0","PERIOD":"95.437","RA_OF_ASC_NODE":"133.4340","MEAN_MOTION":"15.08854962","PERIAPSIS":"538.374","ELEMENT_SET_NO":"999","NORAD_CAT_ID":"51778","GP_ID":"209044082","TLE_LINE2":"2 51778  53.2156 133.4340 0001916  62.9583  62.3963 15.08854962 24979","REF_FRAME":"TEME","CLASSIFICATION_TYPE":"U","FILE":"3524104","SEMIMAJOR_AXIS":"6917.835","LAUNCH_DATE":"2022-02-25","OBJECT_TYPE":"PAYLOAD","MEAN_MOTION_DOT":"-0.00023959","TIME_SYSTEM":"UTC","DECAY_DATE":null,"COUNTRY_CODE":"US","ECCENTRICITY":"0.00019160","INCLINATION":"53.2156","CENTER_NAME":"EARTH","ARG_OF_PERICENTER":"62.9583","MEAN_ANOMALY":"62.3963","RCS_SIZE":"LARGE","TLE_LINE1":"1 51778U 22017L   22210.00001157 -.00023959  00000-0 -14916-2 0  9994","MEAN_ELEMENT_THEORY":"SGP4"},{"COUNTRY_CODE":"US","ECCENTRICITY":"0.00022870","DECAY_DATE":null,"TIME_SYSTEM":"UTC","INCLINATION":"53.2180","REF_FRAME":"TEME","TLE_LINE2":"2 51779  53.2180 143.4262 0002287  54.6720 200.8970 15.08859547 24830","FILE":"3524104","CLASSIFICATION_TYPE":"U","OBJECT_TYPE":"PAYLOAD","LAUNCH_DATE":"2022-02-25","SEMIMAJOR_AXIS":"6917.821","MEAN_MOTION_DOT":"-0.00020840","RCS_SIZE":"LARGE","MEAN_ELEMENT_THEORY":"SGP4","TLE_LINE1":"1 51779U 22017M   22210.00001157 -.00020840  00000-0 -12943-2 0  9999","CENTER_NAME":"EARTH","MEAN_ANOMALY":"200.8970","ARG_OF_PERICENTER":"54.6720","BSTAR":"-0.00129430000000","APOAPSIS":"541.268","OBJECT_NAME":"STARLINK-3611","OBJECT_ID":"2022-017M","MEAN_MOTION_DDOT":"0.0000000000000","REV_AT_EPOCH":"2483","EPOCH":"2022-07-29T00:00:00.999648","SITE":"AFWTR","ELEMENT_SET_NO":"999","NORAD_CAT_ID":"51779","GP_ID":"209044081","PERIOD":"95.436","EPHEMERIS_TYPE":"0","RA_OF_ASC_NODE":"143.4262","MEAN_MOTION":"15.08859547","PERIAPSIS":"538.104"},{"RCS_SIZE":"LARGE","TLE_LINE1":"1 51780U 22017N   22210.00001157 -.00036354  00000-0 -22770-2 0  9997","MEAN_ELEMENT_THEORY":"SGP4","CENTER_NAME":"EARTH","ARG_OF_PERICENTER":"56.5888","MEAN_ANOMALY":"253.8136","DECAY_DATE":null,"TIME_SYSTEM":"UTC","COUNTRY_CODE":"US","ECCENTRICITY":"0.00029080","INCLINATION":"53.2176","TLE_LINE2":"2 51780  53.2176 143.4381 0002908  56.5888 253.8136 15.08846933 24887","REF_FRAME":"TEME","FILE":"3524104","CLASSIFICATION_TYPE":"U","SEMIMAJOR_AXIS":"6917.859","LAUNCH_DATE":"2022-02-25","OBJECT_TYPE":"PAYLOAD","MEAN_MOTION_DOT":"-0.00036354","ELEMENT_SET_NO":"999","GP_ID":"209044421","NORAD_CAT_ID":"51780","EPHEMERIS_TYPE":"0","PERIOD":"95.437","RA_OF_ASC_NODE":"143.4381","MEAN_MOTION":"15.08846933","PERIAPSIS":"537.712","BSTAR":"-0.00227700000000","OBJECT_ID":"2022-017N","OBJECT_NAME":"STARLINK-3617","APOAPSIS":"541.736","MEAN_MOTION_DDOT":"0.0000000000000","REV_AT_EPOCH":"2488","EPOCH":"2022-07-29T00:00:00.999648","SITE":"AFWTR"},{"MEAN_MOTION_DOT":"-0.00021680","SEMIMAJOR_AXIS":"6917.840","LAUNCH_DATE":"2022-02-25","OBJECT_TYPE":"PAYLOAD","FILE":"3524104","CLASSIFICATION_TYPE":"U","TLE_LINE2":"2 51781  53.2168 143.4326 0002218  54.9029 220.6644 15.08853067 24849","REF_FRAME":"TEME","INCLINATION":"53.2168","DECAY_DATE":null,"TIME_SYSTEM":"UTC","ECCENTRICITY":"0.00022180","COUNTRY_CODE":"US","ARG_OF_PERICENTER":"54.9029","MEAN_ANOMALY":"220.6644","CENTER_NAME":"EARTH","TLE_LINE1":"1 51781U 22017P   22210.00001157 -.00021680  00000-0 -13476-2 0  9997","MEAN_ELEMENT_THEORY":"SGP4","RCS_SIZE":"LARGE","SITE":"AFWTR","EPOCH":"2022-07-29T00:00:00.999648","REV_AT_EPOCH":"2484","MEAN_MOTION_DDOT":"0.0000000000000","OBJECT_ID":"2022-017P","OBJECT_NAME":"STARLINK-3580","APOAPSIS":"541.240","BSTAR":"-0.00134760000000","PERIAPSIS":"538.171","MEAN_MOTION":"15.08853067","RA_OF_ASC_NODE":"143.4326","EPHEMERIS_TYPE":"0","PERIOD":"95.437","GP_ID":"209044083","NORAD_CAT_ID":"51781","ELEMENT_SET_NO":"999"}];
